{"fetched_at":"2026-03-30T06:02:59Z","count":15439,"tles":[{"name":"STARLINK-31575","line1":"1 59471U 24068S   26087.84994288 -.00000914  00000+0 -23714-4 0  9997","line2":"2 59471  43.0026 282.7971 0001529 272.2565  87.8111 15.27571105111491","category":"Starlink"}]}