{
  "norad_id": 59471,
  "name": "STARLINK-31575",
  "history": [
    {
      "epoch": "2026-03-28T20:23:55.064832Z",
      "apogee_km": 484.1248104254273,
      "perigee_km": 482.02665157228785,
      "latitude_deg": -3.779632046604023e-05,
      "longitude_deg": 150.55314505924494,
      "height_km": 482.81153236863645,
      "semi_major_axis_km": 6861.212730998857,
      "eccentricity": 0.0001529,
      "inclination_deg": 43.0026,
      "raan_deg": 282.7971,
      "arg_perigee_deg": 272.2565,
      "mean_anomaly_deg": 87.8111,
      "mean_motion_rev_day": 15.27571105
    }
  ]
}